COSMOS 2493 (SKRL-756 1)
1 39490U 13078A   26068.88109627  .00005252  00000+0  40276-3 0  9992
2 39490  82.4165 358.3033 0011855 214.7485 145.2966 15.01584319663059
QPS-SAR-12 (KUSHINADA-I)
1 65116U 25169A   26068.45165888  .00007038  00000+0  57220-3 0  9995
2 65116  42.0102 204.8332 0007793 277.3009  82.6931 14.99881586 32436
